{
  "norad_id": 58745,
  "name": "STARLINK-31176",
  "history": [
    {
      "epoch": "2026-03-28T12:37:53.794848Z",
      "apogee_km": 483.71375933595664,
      "perigee_km": 482.2708638417298,
      "latitude_deg": 5.331864183870007e-05,
      "longitude_deg": 98.03451409521516,
      "height_km": 482.7866561447694,
      "semi_major_axis_km": 6861.129311588843,
      "eccentricity": 0.00010515,
      "inclination_deg": 43.0047,
      "raan_deg": 113.4541,
      "arg_perigee_deg": 268.6159,
      "mean_anomaly_deg": 91.4573,
      "mean_motion_rev_day": 15.27598964
    },
    {
      "epoch": "2026-03-29T04:00:01.999584Z",
      "apogee_km": 483.8458743390156,
      "perigee_km": 482.1909636519531,
      "latitude_deg": -41.18738897530689,
      "longitude_deg": 154.3338227971766,
      "height_km": 494.7559833251438,
      "semi_major_axis_km": 6861.155418995484,
      "eccentricity": 0.0001206,
      "inclination_deg": 43.0034,
      "raan_deg": 109.8396,
      "arg_perigee_deg": 270.5419,
      "mean_anomaly_deg": 15.2265,
      "mean_motion_rev_day": 15.27590245
    },
    {
      "epoch": "2026-03-30T00:43:28.471296Z",
      "apogee_km": 483.7583670046888,
      "perigee_km": 482.17894048319795,
      "latitude_deg": -5.383572802180644e-05,
      "longitude_deg": -93.33517043259938,
      "height_km": 482.7354915258762,
      "semi_major_axis_km": 6861.105653743944,
      "eccentricity": 0.0001151,
      "inclination_deg": 43.0041,
      "raan_deg": 104.9613,
      "arg_perigee_deg": 270.7339,
      "mean_anomaly_deg": 89.338,
      "mean_motion_rev_day": 15.27606865
    },
    {
      "epoch": "2026-03-30T00:43:28.472160Z",
      "apogee_km": 483.75871005997305,
      "perigee_km": 482.1785974279155,
      "latitude_deg": -4.990469622457342e-05,
      "longitude_deg": -93.33516985083772,
      "height_km": 482.73548713222834,
      "semi_major_axis_km": 6861.105653743944,
      "eccentricity": 0.00011515,
      "inclination_deg": 43.0041,
      "raan_deg": 104.9613,
      "arg_perigee_deg": 270.7339,
      "mean_anomaly_deg": 89.338,
      "mean_motion_rev_day": 15.27606865
    },
    {
      "epoch": "2026-03-30T12:00:02.000160Z",
      "apogee_km": 484.20920667871087,
      "perigee_km": 482.24617024134204,
      "latitude_deg": 38.96601092406936,
      "longitude_deg": 154.00309583461657,
      "height_km": 486.3421107041281,
      "semi_major_axis_km": 6861.364688460027,
      "eccentricity": 0.00014305,
      "inclination_deg": 43.0033,
      "raan_deg": 102.3102,
      "arg_perigee_deg": 275.0878,
      "mean_anomaly_deg": 151.7002,
      "mean_motion_rev_day": 15.27520359
    },
    {
      "epoch": "2026-03-30T17:59:12.271776Z",
      "apogee_km": 484.4854863921373,
      "perigee_km": 481.6011834029523,
      "latitude_deg": 3.3503378857109205e-05,
      "longitude_deg": 2.9595895244334147,
      "height_km": 482.98910153174637,
      "semi_major_axis_km": 6861.1803348975445,
      "eccentricity": 0.00021019,
      "inclination_deg": 43.0068,
      "raan_deg": 100.8974,
      "arg_perigee_deg": 263.3184,
      "mean_anomaly_deg": 96.7429,
      "mean_motion_rev_day": 15.27581924
    },
    {
      "epoch": "2026-03-31T17:31:33.397824Z",
      "apogee_km": 483.9587766745244,
      "perigee_km": 482.1213534564995,
      "latitude_deg": -1.6956235495850436e-05,
      "longitude_deg": 3.3668911758348954,
      "height_km": 482.7994759144047,
      "semi_major_axis_km": 6861.177065065512,
      "eccentricity": 0.0001339,
      "inclination_deg": 43.004,
      "raan_deg": 95.3595,
      "arg_perigee_deg": 271.1033,
      "mean_anomaly_deg": 88.9665,
      "mean_motion_rev_day": 15.27583016
    },
    {
      "epoch": "2026-04-01T17:03:54.795168Z",
      "apogee_km": 483.78230420092495,
      "perigee_km": 482.344196628439,
      "latitude_deg": 2.693084527190525e-05,
      "longitude_deg": 3.772259872201496,
      "height_km": 482.81551632159994,
      "semi_major_axis_km": 6861.200250414682,
      "eccentricity": 0.0001048,
      "inclination_deg": 43.0026,
      "raan_deg": 89.8207,
      "arg_perigee_deg": 271.9467,
      "mean_anomaly_deg": 88.1265,
      "mean_motion_rev_day": 15.27575273
    },
    {
      "epoch": "2026-04-02T16:36:15.584256Z",
      "apogee_km": 483.5019584324855,
      "perigee_km": 482.6182362463478,
      "latitude_deg": 4.918092965619829e-05,
      "longitude_deg": 4.181046420125787,
      "height_km": 482.6692495793825,
      "semi_major_axis_km": 6861.197097339416,
      "eccentricity": 6.44e-05,
      "inclination_deg": 43.0024,
      "raan_deg": 84.2828,
      "arg_perigee_deg": 292.2241,
      "mean_anomaly_deg": 67.8543,
      "mean_motion_rev_day": 15.27576326
    },
    {
      "epoch": "2026-04-02T16:36:15.585120Z",
      "apogee_km": 483.5016839846021,
      "perigee_km": 482.6185106942321,
      "latitude_deg": 4.626808115330321e-05,
      "longitude_deg": 4.181039704144228,
      "height_km": 482.66935336885115,
      "semi_major_axis_km": 6861.197097339416,
      "eccentricity": 6.436e-05,
      "inclination_deg": 43.0024,
      "raan_deg": 84.2828,
      "arg_perigee_deg": 292.2241,
      "mean_anomaly_deg": 67.8543,
      "mean_motion_rev_day": 15.27576326
    },
    {
      "epoch": "2026-04-03T16:08:36.140928Z",
      "apogee_km": 483.9393735983558,
      "perigee_km": 482.16644212616393,
      "latitude_deg": 1.581935279905563e-05,
      "longitude_deg": 4.5885440420071,
      "height_km": 482.78688981001176,
      "semi_major_axis_km": 6861.18990786226,
      "eccentricity": 0.0001292,
      "inclination_deg": 43.0038,
      "raan_deg": 78.7427,
      "arg_perigee_deg": 272.784,
      "mean_anomaly_deg": 87.2864,
      "mean_motion_rev_day": 15.27578727
    },
    {
      "epoch": "2026-04-04T07:50:10.768128Z",
      "apogee_km": 483.43096410530234,
      "perigee_km": 482.7383923891002,
      "latitude_deg": -4.3072606602995675e-05,
      "longitude_deg": 124.85651426771622,
      "height_km": 482.800746387018,
      "semi_major_axis_km": 6861.221678247201,
      "eccentricity": 5.047e-05,
      "inclination_deg": 43.0007,
      "raan_deg": 75.0495,
      "arg_perigee_deg": 279.9649,
      "mean_anomaly_deg": 80.1145,
      "mean_motion_rev_day": 15.27568117
    },
    {
      "epoch": "2026-04-05T07:22:30.484992Z",
      "apogee_km": 483.6577604667682,
      "perigee_km": 482.3610038005445,
      "latitude_deg": -1.4036094032609928e-05,
      "longitude_deg": 125.2712858564984,
      "height_km": 482.5929001096991,
      "semi_major_axis_km": 6861.146382133656,
      "eccentricity": 9.45e-05,
      "inclination_deg": 43.0016,
      "raan_deg": 69.5131,
      "arg_perigee_deg": 287.3138,
      "mean_anomaly_deg": 72.761,
      "mean_motion_rev_day": 15.27593263
    },
    {
      "epoch": "2026-04-05T15:13:18.344640Z",
      "apogee_km": 483.6119625354213,
      "perigee_km": 482.5073098769917,
      "latitude_deg": 3.0000972160614187e-05,
      "longitude_deg": 5.401767481874552,
      "height_km": 482.69186822087306,
      "semi_major_axis_km": 6861.196636206207,
      "eccentricity": 8.05e-05,
      "inclination_deg": 43.0027,
      "raan_deg": 67.6652,
      "arg_perigee_deg": 285.1389,
      "mean_anomaly_deg": 74.9374,
      "mean_motion_rev_day": 15.2757648
    },
    {
      "epoch": "2026-04-05T23:04:05.212416Z",
      "apogee_km": 483.60322919574355,
      "perigee_km": 482.5026943258781,
      "latitude_deg": 2.190947576948459e-06,
      "longitude_deg": -114.4623833916417,
      "height_km": 482.70823727728833,
      "semi_major_axis_km": 6861.189961760811,
      "eccentricity": 8.02e-05,
      "inclination_deg": 43.0027,
      "raan_deg": 65.8186,
      "arg_perigee_deg": 282.7248,
      "mean_anomaly_deg": 77.3514,
      "mean_motion_rev_day": 15.27578709
    },
    {
      "epoch": "2026-04-07T06:27:12.786336Z",
      "apogee_km": 483.5467894681924,
      "perigee_km": 482.5534267986768,
      "latitude_deg": -3.2601869761911576e-05,
      "longitude_deg": 126.08396406247698,
      "height_km": 482.6289363797149,
      "semi_major_axis_km": 6861.187108133435,
      "eccentricity": 7.239e-05,
      "inclination_deg": 43.0021,
      "raan_deg": 58.4355,
      "arg_perigee_deg": 293.4298,
      "mean_anomaly_deg": 66.6477,
      "mean_motion_rev_day": 15.27579662
    },
    {
      "epoch": "2026-04-08T05:59:30.726816Z",
      "apogee_km": 483.8243458864681,
      "perigee_km": 481.95924381887653,
      "latitude_deg": -7.060738310074283e-06,
      "longitude_deg": 126.504152062592,
      "height_km": 482.17782213096353,
      "semi_major_axis_km": 6861.028794852672,
      "eccentricity": 0.00013592,
      "inclination_deg": 43.0018,
      "raan_deg": 52.8971,
      "arg_perigee_deg": 301.7509,
      "mean_anomaly_deg": 58.321,
      "mean_motion_rev_day": 15.27632534
    },
    {
      "epoch": "2026-04-09T21:13:27.523776Z",
      "apogee_km": 483.93964391097325,
      "perigee_km": 481.9224898993043,
      "latitude_deg": -2.041317710195719e-05,
      "longitude_deg": -112.8280402695634,
      "height_km": 482.3478219606253,
      "semi_major_axis_km": 6861.068066905139,
      "eccentricity": 0.000147,
      "inclination_deg": 43.0049,
      "raan_deg": 43.6628,
      "arg_perigee_deg": 290.9439,
      "mean_anomaly_deg": 69.1255,
      "mean_motion_rev_day": 15.27619418
    },
    {
      "epoch": "2026-04-10T05:04:14.362176Z",
      "apogee_km": 483.80899863091963,
      "perigee_km": 482.0848082459861,
      "latitude_deg": 6.706264277336416e-06,
      "longitude_deg": 127.30818990889327,
      "height_km": 482.5155753401127,
      "semi_major_axis_km": 6861.083903438453,
      "eccentricity": 0.00012565,
      "inclination_deg": 43.0034,
      "raan_deg": 41.8164,
      "arg_perigee_deg": 283.981,
      "mean_anomaly_deg": 76.0902,
      "mean_motion_rev_day": 15.27614129
    }
  ]
}